[{"OBJECT_NAME":"STARLINK-32180","OBJECT_ID":"2024-138V","EPOCH":"2026-03-09T22:25:23.630592","MEAN_MOTION":15.30186775,"ECCENTRICITY":0.00011824,"INCLINATION":53.1611,"RA_OF_ASC_NODE":308.5635,"ARG_OF_PERICENTER":108.8301,"MEAN_ANOMALY":251.2828,"EPHEMERIS_TYPE":0,"CLASSIFICATION_TYPE":"U","NORAD_CAT_ID":60374,"ELEMENT_SET_NO":999,"REV_AT_EPOCH":9066,"BSTAR":5.6820904e-5,"MEAN_MOTION_DOT":1.323e-5,"MEAN_MOTION_DDOT":0},{"OBJECT_NAME":"NOAA 17 DEB","OBJECT_ID":"2002-032DK","EPOCH":"2026-03-06T06:53:22.349472","MEAN_MOTION":15.29547844,"ECCENTRICITY":0.00135803,"INCLINATION":98.6735,"RA_OF_ASC_NODE":77.6727,"ARG_OF_PERICENTER":131.2945,"MEAN_ANOMALY":228.9463,"EPHEMERIS_TYPE":0,"CLASSIFICATION_TYPE":"U","NORAD_CAT_ID":49481,"ELEMENT_SET_NO":999,"REV_AT_EPOCH":24998,"BSTAR":0.011623019,"MEAN_MOTION_DOT":0.00349096,"MEAN_MOTION_DDOT":0}]
